{
  "type": "FeatureCollection",
  "features": [
    {
      "type": "Feature",
      "properties": {
        "norad_id": 29268,
        "name": "ARIRANG-2 (KOMPSAT-2)",
        "group": "resource",
        "lat": -81.32966394614328,
        "lon": -109.51862147167058,
        "alt_km": 676.775258852409,
        "timestamp": "2025-12-24T03:53:29.298900+00:00",
        "meta_object_name": "ARIRANG-2 (KOMPSAT-2)",
        "meta_object_id": "2006-031A",
        "meta_epoch": "2025-12-23T20:36:14.438880",
        "meta_mean_motion": 14.64504032,
        "meta_eccentricity": 0.0013131,
        "meta_inclination": 97.8254,
        "meta_ra_of_asc_node": 185.7893,
        "meta_arg_of_pericenter": 270.9756,
        "meta_mean_anomaly": 202.843,
        "meta_ephemeris_type": 0,
        "meta_classification_type": "U",
        "meta_norad_cat_id": 29268,
        "meta_element_set_no": 999,
        "meta_rev_at_epoch": 3581,
        "meta_bstar": 0.00014369,
        "meta_mean_motion_dot": 7.17e-06,
        "meta_mean_motion_ddot": 0,
        "tle_line1": "1 29268U 06031A   25357.85850045  .00000717  00000+0  14369-3 0  9994",
        "tle_line2": "2 29268  97.8254 185.7893 0013131 270.9756 202.8430 14.64504032 35815"
      },
      "geometry": {
        "type": "Point",
        "coordinates": [
          -109.51862147167058,
          -81.32966394614328
        ]
      }
    },
    {
      "type": "Feature",
      "properties": {
        "norad_id": 29709,
        "name": "LAPAN-TUBSAT",
        "group": "resource",
        "lat": -1.8727795690879312,
        "lon": -11.178909860400598,
        "alt_km": 607.7697392019736,
        "timestamp": "2025-12-24T03:53:29.298911+00:00",
        "meta_object_name": "LAPAN-TUBSAT",
        "meta_object_id": "2007-001A",
        "meta_epoch": "2025-12-23T21:26:03.719904",
        "meta_mean_motion": 14.85687343,
        "meta_eccentricity": 0.0013316,
        "meta_inclination": 98.1261,
        "meta_ra_of_asc_node": 348.2788,
        "meta_arg_of_pericenter": 41.1219,
        "meta_mean_anomaly": 319.0996,
        "meta_ephemeris_type": 0,
        "meta_classification_type": "U",
        "meta_norad_cat_id": 29709,
        "meta_element_set_no": 999,
        "meta_rev_at_epoch": 2512,
        "meta_bstar": 7.816e-05,
        "meta_mean_motion_dot": 6.21e-06,
        "meta_mean_motion_ddot": 0,
        "tle_line1": "1 29709U 07001A   25357.89309861  .00000621  00000+0  78160-4 0  9995",
        "tle_line2": "2 29709  98.1261 348.2788 0013316  41.1219 319.0996 14.85687343 25124"
      },
      "geometry": {
        "type": "Point",
        "coordinates": [
          -11.178909860400598,
          -1.8727795690879312
        ]
      }
    },
    {
      "type": "Feature",
      "properties": {
        "norad_id": 31113,
        "name": "HAIYANG-1B",
        "group": "resource",
        "lat": 22.52443777098899,
        "lon": 165.45350783435768,
        "alt_km": 796.763635664679,
        "timestamp": "2025-12-24T03:53:29.298922+00:00",
        "meta_object_name": "HAIYANG-1B",
        "meta_object_id": "2007-010A",
        "meta_epoch": "2025-12-23T17:05:28.102848",
        "meta_mean_motion": 14.30968473,
        "meta_eccentricity": 0.0013686,
        "meta_inclination": 98.3327,
        "meta_ra_of_asc_node": 341.5374,
        "meta_arg_of_pericenter": 6.6449,
        "meta_mean_anomaly": 353.4914,
        "meta_ephemeris_type": 0,
        "meta_classification_type": "U",
        "meta_norad_cat_id": 31113,
        "meta_element_set_no": 999,
        "meta_rev_at_epoch": 97553,
        "meta_bstar": 5.3718e-05,
        "meta_mean_motion_dot": 1e-06,
        "meta_mean_motion_ddot": 0,
        "tle_line1": "1 31113U 07010A   25357.71213082  .00000100  00000+0  53718-4 0  9991",
        "tle_line2": "2 31113  98.3327 341.5374 0013686   6.6449 353.4914 14.30968473975536"
      },
      "geometry": {
        "type": "Point",
        "coordinates": [
          165.45350783435768,
          22.52443777098899
        ]
      }
    },
    {
      "type": "Feature",
      "properties": {
        "norad_id": 31598,
        "name": "COSMO-SKYMED 1",
        "group": "resource",
        "lat": 9.840174783873652,
        "lon": -177.74053475863886,
        "alt_km": 581.0523347212102,
        "timestamp": "2025-12-24T03:53:29.298933+00:00",
        "meta_object_name": "COSMO-SKYMED 1",
        "meta_object_id": "2007-023A",
        "meta_epoch": "2025-12-23T19:49:12.056736",
        "meta_mean_motion": 14.95845812,
        "meta_eccentricity": 0.0001381,
        "meta_inclination": 97.884,
        "meta_ra_of_asc_node": 183.2983,
        "meta_arg_of_pericenter": 79.0236,
        "meta_mean_anomaly": 281.114,
        "meta_ephemeris_type": 0,
        "meta_classification_type": "U",
        "meta_norad_cat_id": 31598,
        "meta_element_set_no": 999,
        "meta_rev_at_epoch": 356,
        "meta_bstar": 0.00027832,
        "meta_mean_motion_dot": 3.05e-05,
        "meta_mean_motion_ddot": 0,
        "tle_line1": "1 31598U 07023A   25357.82583399  .00003050  00000+0  27832-3 0  9999",
        "tle_line2": "2 31598  97.8840 183.2983 0001381  79.0236 281.1140 14.95845812  3566"
      },
      "geometry": {
        "type": "Point",
        "coordinates": [
          -177.74053475863886,
          9.840174783873652
        ]
      }
    },
    {
      "type": "Feature",
      "properties": {
        "norad_id": 31698,
        "name": "TERRASAR-X",
        "group": "resource",
        "lat": -80.45091333556633,
        "lon": 132.3652503060312,
        "alt_km": 516.9864918333851,
        "timestamp": "2025-12-24T03:53:29.298949+00:00",
        "meta_object_name": "TERRASAR-X",
        "meta_object_id": "2007-026A",
        "meta_epoch": "2025-12-23T12:30:19.023264",
        "meta_mean_motion": 15.19149386,
        "meta_eccentricity": 0.000177,
        "meta_inclination": 97.4442,
        "meta_ra_of_asc_node": 2.7437,
        "meta_arg_of_pericenter": 81.4954,
        "meta_mean_anomaly": 278.6481,
        "meta_ephemeris_type": 0,
        "meta_classification_type": "U",
        "meta_norad_cat_id": 31698,
        "meta_element_set_no": 999,
        "meta_rev_at_epoch": 2655,
        "meta_bstar": 4.2969e-05,
        "meta_mean_motion_dot": 8.35e-06,
        "meta_mean_motion_ddot": 0,
        "tle_line1": "1 31698U 07026A   25357.52105351  .00000835  00000+0  42969-4 0  9995",
        "tle_line2": "2 31698  97.4442   2.7437 0001770  81.4954 278.6481 15.19149386 26559"
      },
      "geometry": {
        "type": "Point",
        "coordinates": [
          132.3652503060312,
          -80.45091333556633
        ]
      }
    },
    {
      "type": "Feature",
      "properties": {
        "norad_id": 32060,
        "name": "WORLDVIEW-1 (WV-1)",
        "group": "resource",
        "lat": 57.55093253442368,
        "lon": -52.75663713348739,
        "alt_km": 489.7093375274062,
        "timestamp": "2025-12-24T03:53:29.298972+00:00",
        "meta_object_name": "WORLDVIEW-1 (WV-1)",
        "meta_object_id": "2007-041A",
        "meta_epoch": "2025-12-23T05:17:50.368704",
        "meta_mean_motion": 15.23921594,
        "meta_eccentricity": 0.00032781,
        "meta_inclination": 97.3827,
        "meta_ra_of_asc_node": 114.5499,
        "meta_arg_of_pericenter": 1.9713,
        "meta_mean_anomaly": 358.1537,
        "meta_ephemeris_type": 0,
        "meta_classification_type": "U",
        "meta_norad_cat_id": 32060,
        "meta_element_set_no": 999,
        "meta_rev_at_epoch": 1607,
        "meta_bstar": 0.00036124565,
        "meta_mean_motion_dot": 8.663e-05,
        "meta_mean_motion_ddot": 0,
        "tle_line1": "1 32060U 07041A   25357.22072186  .00008663  00000+0  36125-3 0  9995",
        "tle_line2": "2 32060  97.3827 114.5499 0003278   1.9713 358.1537 15.23921594 16070"
      },
      "geometry": {
        "type": "Point",
        "coordinates": [
          -52.75663713348739,
          57.55093253442368
        ]
      }
    },
    {
      "type": "Feature",
      "properties": {
        "norad_id": 32289,
        "name": "YAOGAN-3",
        "group": "resource",
        "lat": -23.71412098454538,
        "lon": 28.151012012367765,
        "alt_km": 603.990177225186,
        "timestamp": "2025-12-24T03:53:29.298994+00:00",
        "meta_object_name": "YAOGAN-3",
        "meta_object_id": "2007-055A",
        "meta_epoch": "2025-12-23T21:33:05.118624",
        "meta_mean_motion": 14.8990781,
        "meta_eccentricity": 0.0001232,
        "meta_inclination": 97.8351,
        "meta_ra_of_asc_node": 24.4215,
        "meta_arg_of_pericenter": 82.8327,
        "meta_mean_anomaly": 277.303,
        "meta_ephemeris_type": 0,
        "meta_classification_type": "U",
        "meta_norad_cat_id": 32289,
        "meta_element_set_no": 999,
        "meta_rev_at_epoch": 97975,
        "meta_bstar": 0.00024434,
        "meta_mean_motion_dot": 2.295e-05,
        "meta_mean_motion_ddot": 0,
        "tle_line1": "1 32289U 07055A   25357.89797591  .00002295  00000+0  24434-3 0  9995",
        "tle_line2": "2 32289  97.8351  24.4215 0001232  82.8327 277.3030 14.89907810979751"
      },
      "geometry": {
        "type": "Point",
        "coordinates": [
          28.151012012367765,
          -23.71412098454538
        ]
      }
    }
  ]
}